20302,NAVSTAR 16 (USA 47),1989,760.19,-1.0,-,54.0,Inactive,0,MEO,USA,USA,Unknown,Unknown,Unknown,1 20302U 89085A   25100.98996896 -.00000018  00000+0  00000+0 0  9997,2 20302  53.9953 198.8876 0008698  70.9049 315.4423  1.89426391250350,1.89426391,0.0008698,MEO
20361,NAVSTAR 17 (USA 49),1989,761.2,-1.0,-,56.2,Inactive,0,MEO,USA,USA,Unknown,Unknown,Unknown,1 20361U 89097A   25102.51067671 -.00000108  00000+0  00000+0 0  9996,2 20361  56.1963  25.9140 0024347 314.3548 263.6282  1.89175510241208,1.8917551,0.0024347,MEO
20452,NAVSTAR 18 (USA 50),1990,759.5,-1.0,-,54.78,Inactive,0,MEO,USA,USA,Unknown,Unknown,Unknown,1 20452U 90008A   25102.47618303  .00000064  00000+0  00000+0 0  9990,2 20452  54.7780 148.7114 0016021 275.4190 149.1664  1.89597976248264,1.89597976,0.0016021,MEO
20724,NAVSTAR 20 (USA 63),1990,769.29,-1.0,-,54.58,Inactive,0,MEO,USA,USA,Unknown,Unknown,Unknown,1 20724U 90068A   25102.47826881  .00000010  00000+0  00000+0 0  9991,2 20724  54.5751  89.5521 0037963 322.4994 158.6595  1.87186188241863,1.87186188,0.0037963,MEO
20830,NAVSTAR 21 (USA 64),1990,766.97,-1.0,-,56.28,Inactive,0,MEO,USA,USA,Unknown,Unknown,Unknown,1 20830U 90088A   25102.33975753 -.00000111  00000+0  00000+0 0  9992,2 20830  56.2848  24.4859 0023793 285.9645 279.1325  1.87752661244713,1.87752661,0.0023793,MEO
21552,NAVSTAR 23 (USA 71),1991,750.56,-1.0,-,56.49,Inactive,0,MEO,USA,USA,Unknown,Unknown,Unknown,1 21552U 91047A   25098.89961167 -.00000122  00000+0  00000+0 0  9991,2 21552  56.4903   7.9235 0033933 125.9449  50.6442  1.91857807243056,1.91857807,0.0033933,MEO
21890,NAVSTAR 24 (USA 79),1992,750.67,-1.0,-,54.21,Inactive,0,MEO,USA,USA,Unknown,Unknown,Unknown,1 21890U 92009A   25102.54141961  .00000026  00000+0  00000+0 0  9997,2 21890  54.2149 181.8182 0050259  54.2950  42.1783  1.91828707237833,1.91828707,0.0050259,MEO
21930,NAVSTAR 25 (USA 80),1992,767.34,-1.0,-,55.3,Inactive,0,MEO,USA,USA,Unknown,Unknown,Unknown,1 21930U 92019A   25102.98894766 -.00000071  00000+0  00000+0 0  9990,2 21930  55.2984 320.2103 0030145 337.2045  20.6715  1.87661123233372,1.87661123,0.0030145,MEO
22014,NAVSTAR 26 (USA 83),1992,766.32,-1.0,-,55.39,Inactive,0,MEO,USA,USA,Unknown,Unknown,Unknown,1 22014U 92039A   25103.06973996  .00000067  00000+0  00000+0 0  9993,2 22014  55.3914 134.2857 0005984 278.4102  81.5988  1.87912122 67171,1.87912122,0.0005984,MEO
22108,NAVSTAR 27 (USA 84),1992,767.75,-1.0,-,54.66,Inactive,0,MEO,USA,USA,Unknown,Unknown,Unknown,1 22108U 92058A   25102.96841853  .00000031  00000+0  00000+0 0  9993,2 22108  54.6572 181.5128 0016188  38.5045 321.6756  1.87561432234959,1.87561432,0.0016188,MEO
22231,NAVSTAR 28 (USA 85),1992,761.47,-1.0,-,55.4,Inactive,0,MEO,USA,USA,Unknown,Unknown,Unknown,1 22231U 92079A   25103.12612583  .00000064  00000+0  00000+0 0  9994,2 22231  55.3980 128.6378 0024967 352.7232   7.3089  1.89108795 54003,1.89108795,0.0024967,MEO
