[
    {
        "OBJECT_NAME": "NAVSTAR 16 (USA 47)",
        "OBJECT_ID": "1989-085A",
        "EPOCH": "2025-04-10T23:45:33.318144",
        "MEAN_MOTION": 1.89426391,
        "ECCENTRICITY": 0.0008698,
        "INCLINATION": 53.9953,
        "RA_OF_ASC_NODE": 198.8876,
        "ARG_OF_PERICENTER": 70.9049,
        "MEAN_ANOMALY": 315.4423,
        "EPHEMERIS_TYPE": 0,
        "CLASSIFICATION_TYPE": "U",
        "NORAD_CAT_ID": 20302,
        "ELEMENT_SET_NO": 999,
        "REV_AT_EPOCH": 25035,
        "BSTAR": 0,
        "MEAN_MOTION_DOT": -1.8e-07,
        "MEAN_MOTION_DDOT": 0
    },
    {
        "OBJECT_NAME": "NAVSTAR 17 (USA 49)",
        "OBJECT_ID": "1989-097A",
        "EPOCH": "2025-04-12T12:15:22.467744",
        "MEAN_MOTION": 1.8917551,
        "ECCENTRICITY": 0.0024347,
        "INCLINATION": 56.1963,
        "RA_OF_ASC_NODE": 25.914,
        "ARG_OF_PERICENTER": 314.3548,
        "MEAN_ANOMALY": 263.6282,
        "EPHEMERIS_TYPE": 0,
        "CLASSIFICATION_TYPE": "U",
        "NORAD_CAT_ID": 20361,
        "ELEMENT_SET_NO": 999,
        "REV_AT_EPOCH": 24120,
        "BSTAR": 0,
        "MEAN_MOTION_DOT": -1.08e-06,
        "MEAN_MOTION_DDOT": 0
    },
    {
        "OBJECT_NAME": "NAVSTAR 18 (USA 50)",
        "OBJECT_ID": "1990-008A",
        "EPOCH": "2025-04-12T11:25:42.213792",
        "MEAN_MOTION": 1.89597976,
        "ECCENTRICITY": 0.0016021,
        "INCLINATION": 54.778,
        "RA_OF_ASC_NODE": 148.7114,
        "ARG_OF_PERICENTER": 275.419,
        "MEAN_ANOMALY": 149.1664,
        "EPHEMERIS_TYPE": 0,
        "CLASSIFICATION_TYPE": "U",
        "NORAD_CAT_ID": 20452,
        "ELEMENT_SET_NO": 999,
        "REV_AT_EPOCH": 24826,
        "BSTAR": 0,
        "MEAN_MOTION_DOT": 6.4e-07,
        "MEAN_MOTION_DDOT": 0
    },
    {
        "OBJECT_NAME": "NAVSTAR 20 (USA 63)",
        "OBJECT_ID": "1990-068A",
        "EPOCH": "2025-04-12T11:28:42.425184",
        "MEAN_MOTION": 1.87186188,
        "ECCENTRICITY": 0.0037963,
        "INCLINATION": 54.5751,
        "RA_OF_ASC_NODE": 89.5521,
        "ARG_OF_PERICENTER": 322.4994,
        "MEAN_ANOMALY": 158.6595,
        "EPHEMERIS_TYPE": 0,
        "CLASSIFICATION_TYPE": "U",
        "NORAD_CAT_ID": 20724,
        "ELEMENT_SET_NO": 999,
        "REV_AT_EPOCH": 24186,
        "BSTAR": 0,
        "MEAN_MOTION_DOT": 1e-07,
        "MEAN_MOTION_DDOT": 0
    },
    {
        "OBJECT_NAME": "NAVSTAR 21 (USA 64)",
        "OBJECT_ID": "1990-088A",
        "EPOCH": "2025-04-12T08:09:15.050592",
        "MEAN_MOTION": 1.87752661,
        "ECCENTRICITY": 0.0023793,
        "INCLINATION": 56.2848,
        "RA_OF_ASC_NODE": 24.4859,
        "ARG_OF_PERICENTER": 285.9645,
        "MEAN_ANOMALY": 279.1325,
        "EPHEMERIS_TYPE": 0,
        "CLASSIFICATION_TYPE": "U",
        "NORAD_CAT_ID": 20830,
        "ELEMENT_SET_NO": 999,
        "REV_AT_EPOCH": 24471,
        "BSTAR": 0,
        "MEAN_MOTION_DOT": -1.11e-06,
        "MEAN_MOTION_DDOT": 0
    },
    {
        "OBJECT_NAME": "NAVSTAR 23 (USA 71)",
        "OBJECT_ID": "1991-047A",
        "EPOCH": "2025-04-08T21:35:26.448288",
        "MEAN_MOTION": 1.91857807,
        "ECCENTRICITY": 0.0033933,
        "INCLINATION": 56.4903,
        "RA_OF_ASC_NODE": 7.9235,
        "ARG_OF_PERICENTER": 125.9449,
        "MEAN_ANOMALY": 50.6442,
        "EPHEMERIS_TYPE": 0,
        "CLASSIFICATION_TYPE": "U",
        "NORAD_CAT_ID": 21552,
        "ELEMENT_SET_NO": 999,
        "REV_AT_EPOCH": 24305,
        "BSTAR": 0,
        "MEAN_MOTION_DOT": -1.22e-06,
        "MEAN_MOTION_DDOT": 0
    },
    {
        "OBJECT_NAME": "NAVSTAR 24 (USA 79)",
        "OBJECT_ID": "1992-009A",
        "EPOCH": "2025-04-12T12:59:38.654304",
        "MEAN_MOTION": 1.91828707,
        "ECCENTRICITY": 0.0050259,
        "INCLINATION": 54.2149,
        "RA_OF_ASC_NODE": 181.8182,
        "ARG_OF_PERICENTER": 54.295,
        "MEAN_ANOMALY": 42.1783,
        "EPHEMERIS_TYPE": 0,
        "CLASSIFICATION_TYPE": "U",
        "NORAD_CAT_ID": 21890,
        "ELEMENT_SET_NO": 999,
        "REV_AT_EPOCH": 23783,
        "BSTAR": 0,
        "MEAN_MOTION_DOT": 2.6e-07,
        "MEAN_MOTION_DDOT": 0
    },
    {
        "OBJECT_NAME": "NAVSTAR 25 (USA 80)",
        "OBJECT_ID": "1992-019A",
        "EPOCH": "2025-04-12T23:44:05.077824",
        "MEAN_MOTION": 1.87661123,
        "ECCENTRICITY": 0.0030145,
        "INCLINATION": 55.2984,
        "RA_OF_ASC_NODE": 320.2103,
        "ARG_OF_PERICENTER": 337.2045,
        "MEAN_ANOMALY": 20.6715,
        "EPHEMERIS_TYPE": 0,
        "CLASSIFICATION_TYPE": "U",
        "NORAD_CAT_ID": 21930,
        "ELEMENT_SET_NO": 999,
        "REV_AT_EPOCH": 23337,
        "BSTAR": 0,
        "MEAN_MOTION_DOT": -7.1e-07,
        "MEAN_MOTION_DDOT": 0
    },
    {
        "OBJECT_NAME": "NAVSTAR 26 (USA 83)",
        "OBJECT_ID": "1992-039A",
        "EPOCH": "2025-04-13T01:40:25.532544",
        "MEAN_MOTION": 1.87912122,
        "ECCENTRICITY": 0.0005984,
        "INCLINATION": 55.3914,
        "RA_OF_ASC_NODE": 134.2857,
        "ARG_OF_PERICENTER": 278.4102,
        "MEAN_ANOMALY": 81.5988,
        "EPHEMERIS_TYPE": 0,
        "CLASSIFICATION_TYPE": "U",
        "NORAD_CAT_ID": 22014,
        "ELEMENT_SET_NO": 999,
        "REV_AT_EPOCH": 6717,
        "BSTAR": 0,
        "MEAN_MOTION_DOT": 6.7e-07,
        "MEAN_MOTION_DDOT": 0
    },
    {
        "OBJECT_NAME": "NAVSTAR 27 (USA 84)",
        "OBJECT_ID": "1992-058A",
        "EPOCH": "2025-04-12T23:14:31.360992",
        "MEAN_MOTION": 1.87561432,
        "ECCENTRICITY": 0.0016188,
        "INCLINATION": 54.6572,
        "RA_OF_ASC_NODE": 181.5128,
        "ARG_OF_PERICENTER": 38.5045,
        "MEAN_ANOMALY": 321.6756,
        "EPHEMERIS_TYPE": 0,
        "CLASSIFICATION_TYPE": "U",
        "NORAD_CAT_ID": 22108,
        "ELEMENT_SET_NO": 999,
        "REV_AT_EPOCH": 23495,
        "BSTAR": 0,
        "MEAN_MOTION_DOT": 3.1e-07,
        "MEAN_MOTION_DDOT": 0
    },
    {
        "OBJECT_NAME": "NAVSTAR 28 (USA 85)",
        "OBJECT_ID": "1992-079A",
        "EPOCH": "2025-04-13T03:01:37.271712",
        "MEAN_MOTION": 1.89108795,
        "ECCENTRICITY": 0.0024967,
        "INCLINATION": 55.398,
        "RA_OF_ASC_NODE": 128.6378,
        "ARG_OF_PERICENTER": 352.7232,
        "MEAN_ANOMALY": 7.3089,
        "EPHEMERIS_TYPE": 0,
        "CLASSIFICATION_TYPE": "U",
        "NORAD_CAT_ID": 22231,
        "ELEMENT_SET_NO": 999,
        "REV_AT_EPOCH": 5400,
        "BSTAR": 0,
        "MEAN_MOTION_DOT": 6.4e-07,
        "MEAN_MOTION_DDOT": 0
    }
]